NORAD_CAT_ID,OBJECT_NAME,OBJECT_TYPE,EPOCH,MEAN_MOTION,ECCENTRICITY,INCLINATION,RA_OF_ASC_NODE,ARG_OF_PERICENTER,MEAN_ANOMALY,BSTAR,MEAN_MOTION_DOT,MEAN_MOTION_DDOT,TLE_LINE0,TLE_LINE1,TLE_LINE2,SEMIMAJOR_AXIS,PERIOD,APOGEE,PERIGEE,DECAYED
50165.0,STARLINK-3298,PAYLOAD,2022-02-10 22:00:00,15.3675783,0.0001556,53.2175,99.9079,43.9626,272.6543,-0.019559,-0.00662516,0.0,0 STARLINK-3298,1 50165U 21125K   22041.91667824 -.00662516  00000-0 -19559-1 0  9998,2 50165  53.2175  99.9079 0001556  43.9626 272.6543 15.36757830  3650,6833.840999999999,93.704,456.77,454.643,0.0
50165.0,STARLINK-3298,PAYLOAD,2022-02-11 06:00:00,15.36291778,0.0001547,53.2178,98.3474,41.5442,319.9267,-0.019872,-0.0066298999999999,0.0,0 STARLINK-3298,1 50165U 21125K   22042.25001157 -.00662990  00000-0 -19872-1 0  9991,2 50165  53.2178  98.3474 0001547  41.5442 319.9267 15.36291778  8786,6835.223000000001,93.732,458.146,456.031,0.0
50165.0,STARLINK-3298,PAYLOAD,2022-02-11 12:15:01,15.37062129,0.0001964,53.2211,97.1266,50.4761,309.6417,-0.0056731,-0.00203642,0.0,0 STARLINK-3298,1 50165U 21125K   22042.51043801 -.00203642  00000-0 -56731-2 0  9993,2 50165  53.2211  97.1266 0001964  50.4761 309.6417 15.37062129  8821,6832.939,93.685,456.146,453.462,0.0
50165.0,STARLINK-3298,PAYLOAD,2022-02-11 20:03:30,15.36732981,0.0001332,53.2191,95.6027,47.5437,312.568,-0.0057571,-0.00204429,0.0,0 STARLINK-3298,1 50165U 21125K   22042.83576438 -.00204429  00000-0 -57571-2 0  9992,2 50165  53.2191  95.6027 0001332  47.5437 312.5680 15.36732981 12012,6833.915,93.705,456.69,454.87,0.0
50165.0,STARLINK-3298,PAYLOAD,2022-02-11 22:00:01,15.35355953,0.0001679,53.2175,95.2289,36.7357,52.8277,-0.020343,-0.00658843,0.0,0 STARLINK-3298,1 50165U 21125K   22042.91668981 -.00658843  00000-0 -20343-1 0  9995,2 50165  53.2175  95.2289 0001679  36.7357  52.8277 15.35355953  8891,6838.0,93.789,461.014,458.717,0.0
50165.0,STARLINK-3298,PAYLOAD,2022-02-12 11:41:11,15.35678525,0.0002543,53.2208,92.5651,45.1445,314.9765,-0.0054881,-0.00188805,0.0,0 STARLINK-3298,1 50165U 21125K   22043.48693965 -.00188805  00000-0 -54881-2 0  9999,2 50165  53.2208  92.5651 0002543  45.1445 314.9765 15.35678525 12111,6837.043000000002,93.77,460.646,457.169,0.0
50165.0,STARLINK-3298,PAYLOAD,2022-02-12 22:00:00,15.33955962,0.0001676999999999,53.2174,90.5597,45.8156,171.5198,-0.021234,-0.00657642,0.0,0 STARLINK-3298,1 50165U 21125K   22043.91667824 -.00657642  00000-0 -21234-1 0  9997,2 50165  53.2174  90.5597 0001677  45.8156 171.5198 15.33955962  3672,6842.16,93.875,465.173,462.878,0.0
50165.0,STARLINK-3298,PAYLOAD,2022-02-13 06:00:00,15.3349039,0.0001868,53.2175,89.0061,38.3058,220.5197,-0.021619,-0.00659597,0.0,0 STARLINK-3298,1 50165U 21125K   22044.25001157 -.00659597  00000-0 -21619-1 0  9994,2 50165  53.2175  89.0061 0001868  38.3058 220.5197 15.33490390  9097,6843.545,93.903,466.689,464.132,0.0
50165.0,STARLINK-3298,PAYLOAD,2022-02-13 14:00:01,15.33021864,0.0001535,53.2173,87.4543,47.308,252.4473,-0.021806,-0.00655728,0.0,0 STARLINK-3298,1 50165U 21125K   22044.58334491 -.00655728  00000-0 -21806-1 0  9990,2 50165  53.2173  87.4543 0001535  47.3080 252.4473 15.33021864  3662,6844.939,93.932,467.855,465.754,0.0
50165.0,STARLINK-3298,PAYLOAD,2022-02-14 06:00:00,15.31985718,0.0001641999999999,53.2178,84.3489,46.733,333.2621,-0.017782,-0.00520103,0.0,0 STARLINK-3298,1 50165U 21125K   22045.25001157 -.00520103  00000-0 -17782-1 0  9991,2 50165  53.2178  84.3489 0001642  46.7330 333.2621 15.31985718  9240,6848.025,93.996,471.015,468.766,0.0
50165.0,STARLINK-3298,PAYLOAD,2022-02-14 12:00:02,15.31740652,0.0001561,53.2175,83.1891,46.674,272.8116,-0.02284,-0.00659339,0.0,0 STARLINK-3298,1 50165U 21125K   22045.50002315 -.00659339  00000-0 -22840-1 0  9991,2 50165  53.2175  83.1891 0001561  46.6740 272.8116 15.31740652  9282,6848.755999999999,94.011,471.69,469.552,0.0
50165.0,STARLINK-3298,PAYLOAD,2022-02-14 14:00:01,15.31622818,0.0001599,53.2173,82.8019,39.9215,19.26,-0.022835,-0.00656942,0.0,0 STARLINK-3298,1 50165U 21125K   22045.58334491 -.00656942  00000-0 -22835-1 0  9993,2 50165  53.2173  82.8019 0001599  39.9215  19.2600 15.31622818  3661,6849.107,94.018,472.067,469.877,0.0
50165.0,STARLINK-3298,PAYLOAD,2022-02-14 20:00:01,15.31275566,0.0001703,53.2175,81.6387,35.1491,323.1009,-0.023288,-0.00662323,0.0,0 STARLINK-3298,1 50165U 21125K   22045.83334491 -.00662323  00000-0 -23288-1 0  9994,2 50165  53.2175  81.6387 0001703  35.1491 323.1009 15.31275566  3641,6850.143,94.039,473.174,470.841,0.0
50165.0,STARLINK-3298,PAYLOAD,2022-02-15 14:00:01,15.30222713,0.0001709,53.2172,78.1591,43.5069,130.0556,-0.023834,-0.00656368,0.0,0 STARLINK-3298,1 50165U 21125K   22046.58334491 -.00656368  00000-0 -23834-1 0  9996,2 50165  53.2172  78.1591 0001709  43.5069 130.0556 15.30222713  9458,6853.284000000002,94.104,476.32,473.978,0.0
50165.0,STARLINK-3298,PAYLOAD,2022-02-15 22:00:01,15.29756388,0.0001911,53.2173,76.6118,37.012,173.62099999999995,-0.024198,-0.00656796,0.0,0 STARLINK-3298,1 50165U 21125K   22046.91668981 -.00656796  00000-0 -24198-1 0  9996,2 50165  53.2173  76.6118 0001911  37.0120 173.6210 15.29756388  3652,6854.677,94.133,477.852,475.232,0.0
50165.0,STARLINK-3298,PAYLOAD,2022-02-16 14:00:01,15.28825004,0.0001599,53.2172,73.5262,47.0918,235.8049,-0.02501,-0.00659314,0.0,0 STARLINK-3298,1 50165U 21125K   22047.58334491 -.00659314  00000-0 -25010-1 0  9999,2 50165  53.2172  73.5262 0001599  47.0918 235.8049 15.28825004  9608,6857.4609999999975,94.19,480.422,478.229,0.0
50165.0,STARLINK-3298,PAYLOAD,2022-02-16 22:00:00,15.28274775,0.0001710999999999,53.2177,71.9813,19.1732,299.0941,-0.020855,-0.005419,0.0,0 STARLINK-3298,1 50165U 21125K   22047.91667824 -.00541900  00000-0 -20855-1 0  9998,2 50165  53.2177  71.9813 0001711  19.1732 299.0941 15.28274775  3629,6859.106,94.224,482.145,479.798,0.0
50165.0,STARLINK-3298,PAYLOAD,2022-02-17 14:00:01,15.27425148,0.000153,53.2173,68.9034,42.7042,344.4818,-0.026088,-0.00658803,0.0,0 STARLINK-3298,1 50165U 21125K   22048.58334491 -.00658803  00000-0 -26088-1 0  9998,2 50165  53.2173  68.9034 0001530  42.7042 344.4818 15.27425148  3664,6861.65,94.276,484.565,482.465,0.0
50165.0,STARLINK-3298,PAYLOAD,2022-02-17 22:00:00,15.26956812,0.0001694,53.2173,67.3628,36.3735,24.4564,-0.026388,-0.00657062,0.0,0 STARLINK-3298,1 50165U 21125K   22048.91667824 -.00657062  00000-0 -26388-1 0  9993,2 50165  53.2173  67.3628 0001694  36.3735  24.4564 15.26956812  9817,6863.053000000001,94.305,486.08,483.755,0.0
50165.0,STARLINK-3298,PAYLOAD,2022-02-18 14:00:01,15.26024495,0.0001619,53.2172,64.2903,45.2598,81.1703,-0.027168,-0.00657519,0.0,0 STARLINK-3298,1 50165U 21125K   22049.58334491 -.00657519  00000-0 -27168-1 0  9992,2 50165  53.2172  64.2903 0001619  45.2598  81.1703 15.26024495  3666,6865.848000000001,94.363,488.824,486.601,0.0
50165.0,STARLINK-3298,PAYLOAD,2022-02-18 20:00:01,15.25673994,0.000169,53.2175,63.1372,36.3084,24.1455,-0.027449,-0.00657322,0.0,0 STARLINK-3298,1 50165U 21125K   22049.83334491 -.00657322  00000-0 -27449-1 0  9994,2 50165  53.2175  63.1372 0001690  36.3084  24.1455 15.25673994  9959,6866.899,94.385,489.925,487.604,0.0
50165.0,STARLINK-3298,PAYLOAD,2022-02-19 14:00:01,15.24521666,0.0001808,53.2173,59.6859,36.0266,184.6603,-0.022328,-0.0051921,0.0,0 STARLINK-3298,1 50165U 21125K   22050.58334491 -.00519210  00000-0 -22328-1 0  9992,2 50165  53.2173  59.6859 0001808  36.0266 184.6603 15.24521666  3629,6870.359,94.456,493.466,490.982,0.0
50165.0,STARLINK-3298,PAYLOAD,2022-02-19 22:00:00,15.24081047,0.0001699,53.2175,58.1519,25.9916,224.9583,-0.024098,-0.00556479,0.0,0 STARLINK-3298,1 50165U 21125K   22050.91667824 -.00556479  00000-0 -24098-1 0  9992,2 50165  53.2175  58.1519 0001699  25.9916 224.9583 15.24081047 10116,6871.683000000001,94.483,494.716,492.381,0.0
50165.0,STARLINK-3298,PAYLOAD,2022-02-20 06:00:00,15.23620227,0.0001554,53.2178,56.6223,52.8688,227.7931,-0.024673,-0.00561608,0.0,0 STARLINK-3298,1 50165U 21125K   22051.25001157 -.00561608  00000-0 -24673-1 0  9990,2 50165  53.2178  56.6223 0001554  52.8688 227.7931 15.23620227 10160,6873.069,94.512,496.002,493.866,0.0
50165.0,STARLINK-3298,PAYLOAD,2022-02-20 14:00:01,15.2316541,0.0001715,53.2173,55.0924,41.0377,268.7747,-0.025782,-0.00577865,0.0,0 STARLINK-3298,1 50165U 21125K   22051.58334491 -.00577865  00000-0 -25782-1 0  9990,2 50165  53.2173  55.0924 0001715  41.0377 268.7747 15.23165410 10214,6874.437,94.54,497.481,495.12300000000016,0.0
50165.0,STARLINK-3298,PAYLOAD,2022-02-20 22:00:00,15.22756847,0.0001684,53.2173,53.5632,40.2684,298.1096,-0.029877,-0.0065561,0.0,0 STARLINK-3298,1 50165U 21125K   22051.91667824 -.00655610  00000-0 -29877-1 0  9990,2 50165  53.2173  53.5632 0001684  40.2684 298.1096 15.22756847  3642,6875.666,94.565,498.689,496.374,0.0
50165.0,STARLINK-3298,PAYLOAD,2022-02-21 06:00:00,15.22176903,0.0001713,53.2178,52.0357,49.5761,316.9057,-0.023512,-0.00510387,0.0,0 STARLINK-3298,1 50165U 21125K   22052.25001157 -.00510387  00000-0 -23512-1 0  9990,2 50165  53.2178  52.0357 0001713  49.5761 316.9057 15.22176903 10313,6877.413000000001,94.601,500.456,498.1,0.0
50165.0,STARLINK-3298,PAYLOAD,2022-02-21 14:00:01,15.21747961,0.0001625,53.2174,50.5091,36.3832,357.5445,-0.025651,-0.00552835,0.0,0 STARLINK-3298,1 50165U 21125K   22052.58334491 -.00552835  00000-0 -25651-1 0  9996,2 50165  53.2174  50.5091 0001625  36.3832 357.5445 15.21747961 10377,6878.705,94.628,501.68800000000016,499.452,0.0
50165.0,STARLINK-3298,PAYLOAD,2022-02-21 22:00:00,15.21262511,0.000181,53.2176,48.9819,30.8779,29.9742,-0.024693,-0.0052098,0.0,0 STARLINK-3298,1 50165U 21125K   22052.91667824 -.00520980  00000-0 -24693-1 0  9993,2 50165  53.2176  48.9819 0001810  30.8779  29.9742 15.21262511 10422,6880.168000000002,94.658,503.279,500.788,0.0
